NUSAT-1 (FRESCO)        
1 41557U 16033B   21322.22751594  .00003220  00000+0  11157-3 0  9994
2 41557  97.3934  55.3881 0013672  53.7294   1.4522 15.30486771305046
BEESAT-4                
1 41619U 16040W   21322.09984219  .00003936  00000+0  15278-3 0  9990
2 41619  97.2506  13.8095 0011450 140.9833 219.2235 15.26607064288444
CAS-2T & KS-1Q          
1 41847U 16066G   21322.15597537  .00000233  00000+0  44183-4 0  9996
2 41847  98.5827  21.7785 0365903 121.4043 242.3476 14.38285762263977
NAYIF-1 (EO-88)         
1 42017U 17008BX  21321.92833380  .00004409  00000+0  15719-3 0  9997
2 42017  97.3000  26.7396 0004139 287.8168  72.2621 15.29411553264700
ZHUHAI-1 02 (CAS-4B)    
1 42759U 17034B   21322.00270194  .00000988  00000+0  72104-4 0  9997
2 42759  43.0180  56.7459 0007498  34.7989 133.8014 15.10545779244362
ZHUHAI-1 01 (CAS-4A)    
1 42761U 17034D   21322.16612755  .00000897  00000+0  66501-4 0  9993
2 42761  43.0183  54.7868 0007960  38.1750  37.7274 15.10632128244396
MAX VALIER SAT          
1 42778U 17036P   21321.88991439  .00002256  00000+0  95013-4 0  9991
2 42778  97.2369   5.3683 0011480   3.7909 356.3413 15.24303746244654
RADFXSAT (FOX-1B)       
1 43017U 17073E   21321.70021058  .00000856  00000+0  70363-4 0  9996
2 43017  97.6925 219.5130 0254013 159.8687 201.2768 14.79950104215784
FOX-1D (AO-92)          
1 43137U 18004AC  21321.87975327  .00002830  00000+0  11254-3 0  9996
2 43137  97.3941  34.2920 0009421  39.2096 320.9823 15.26075800214051
DIWATA-2B               
1 43678U 18084H   21322.12223243  .00000498  00000+0  55118-4 0  9992
2 43678  97.9434  88.3837 0008363 262.8609  97.1673 14.91835806166344
ES'HAIL 2               
1 43700U 18090A   21321.87630856  .00000155  00000+0  00000+0 0  9993
2 43700   0.0143 286.4797 0002514 331.2002 140.7616  1.00273259 10904
FOX-1CLIFF (AO-95)      
1 43770U 18099N   21322.14789355  .00000962  00000+0  91813-4 0  9992
2 43770  97.6498  28.8235 0012872 262.6659  97.3099 14.95547820161426
ITASAT 1                
1 43786U 18099AE  21321.83750156  .00000088  00000+0  12983-4 0  9991
2 43786  97.6520  29.3051 0013710 256.5447 103.4247 14.95810200161418
JY1SAT (JO-97)          
1 43803U 18099AX  21321.64036090  .00000254  00000+0  27638-4 0  9992
2 43803  97.6481  28.8511 0013704 256.7391 103.2302 14.96102729161390
UWE-4                   
1 43880U 18111E   21321.25343767  .00000254  00000+0  26979-4 0  9998
2 43880  97.6770 226.2956 0011392 318.2599  41.7752 14.97124343157946
NEXUS (FO-99)           
1 43937U 19003F   21321.68232651  .00003275  00000+0  12647-3 0  9990
2 43937  97.1593 358.6572 0022423 184.2284 175.8770 15.26713703157632
PSAT2 (NO-104)          
1 44354U 19036R   21321.92722387  .00026901  00000+0  32810-3 0  9992
2 44354  28.5246 179.6073 0300439 146.7963 215.1871 15.20197133132291
BRICSAT2 (NO-103)       
1 44355U 19036S   21321.79879794  .00059056 -57717-5  49149-3 0  9997
2 44355  28.5246 104.7372 0206941 268.9447  88.7440 15.45289609133036
JAISAT-1                
1 44419U 19038F   21321.70302076  .00002182  00000+0  12178-3 0  9991
2 44419  97.6088 286.0611 0021782 139.8920 220.3925 15.14444905130989
DUCHIFAT-3              
1 44854U 19089C   21322.13522181  .00000999  00000+0  85505-4 0  9998
2 44854  36.9651 271.6261 0009161 300.3390  59.6447 14.99798472106188
CAS-6 (TO-108)          
1 44881U 19093C   21322.19130697  .00000122  00000+0  22343-4 0  9995
2 44881  97.9139  39.2579 0015699 148.5290 211.6877 14.81510620103496
RS-44 & BREEZE-KM R/B   
1 44909U 19096E   21321.86506531  .00000022  00000+0  34416-4 0  9999
2 44909  82.5242  10.8767 0218517  94.4580 268.1518 12.79711223 88444
ORBITAL FACTORY 2 (OF-2)
1 45113U 19071C   21321.57755892  .00005889  00000+0  16747-3 0  9996
2 45113  51.6423  14.2699 0011415 123.6106 236.5969 15.37561406100716
HUSKYSAT-1 (HO-107)     
1 45119U 19071J   21321.85187851  .00004496  00000+0  13086-3 0  9993
2 45119  51.6424  12.3410 0010985 120.9918 239.2146 15.37447743100753
BY70-2                  
1 45857U 20042B   21322.26551934  .00001759  00000+0  25314-3 0  9991
2 45857  97.9742  36.3830 0012165  82.1541 278.1065 14.77574468 74258
SALSAT                  
1 46495U 20068K   21321.92790775 -.00000138  00000+0 -54760-5 0  9999
2 46495  97.7048 258.6138 0015386 275.6895  84.2578 15.03658417 62397
BY70-3                  
1 46839U 20079N   21322.15877226  .00004805  00000+0  14264-3 0  9992
2 46839  97.2270  32.9750 0007491  27.8666  25.6487 15.35243847 57771
RADFXSAT-2 (AO-109)     
1 47311U 21002C   21321.88881660  .00002670  00000+0  12450-3 0  9994
2 47311  60.6861  76.5469 0037011 125.8553 234.5980 15.22410356 46227
UVSQ-SAT                
1 47438U 21006AB  21321.91377135  .00001590  00000+0  92022-4 0  9993
2 47438  97.4693  20.2734 0011071 290.5271  69.4772 15.13637506 45269
DIY-1 (ARDUIQUBE)       
1 47963U 21022AH  21321.67242014  .00004557  00000+0  29601-3 0  9992
2 47963  97.5457 221.2616 0019899 136.6021 223.6778 15.08362366 34982
